CENTISPACE-1 OBJECT G   
1 68356U 26060G   26087.93793949  .00000045  00000+0  37338-4 0  9994
2 68356  54.9926   3.0806 0014052 316.4035  43.5854 14.75313370   931
